NORAD_CAT_ID,OBJECT_NAME,OBJECT_TYPE,EPOCH,MEAN_MOTION,ECCENTRICITY,INCLINATION,RA_OF_ASC_NODE,ARG_OF_PERICENTER,MEAN_ANOMALY,BSTAR,MEAN_MOTION_DOT,MEAN_MOTION_DDOT,TLE_LINE0,TLE_LINE1,TLE_LINE2,SEMIMAJOR_AXIS,PERIOD,APOGEE,PERIGEE,DECAYED
52671.0,STARLINK-4071,PAYLOAD,2022-08-14 22:00:00,15.0880756,0.000193,53.2172,242.4877,43.9102,47.4586,0.0026608,0.00042276,0.0,0 STARLINK-4071,1 52671U 22053R   22226.91667824  .00042276  00000-0  26608-2 0  9995,2 52671  53.2172 242.4877 0001930  43.9102  47.4586 15.08807560  1307,6917.98,95.44,541.18,538.509,0.0
52671.0,STARLINK-4071,PAYLOAD,2022-08-15 14:00:01,15.08834623,0.0002198999999999,53.2173,239.4965,39.6905,74.8377,0.00026534,3.937e-05,0.0,0 STARLINK-4071,1 52671U 22053R   22227.58334491  .00003937  00000-0  26534-3 0  9990,2 52671  53.2173 239.4965 0002199  39.6905  74.8377 15.08834623  1305,6917.897,95.438,541.283,538.241,0.0
52671.0,STARLINK-4071,PAYLOAD,2022-08-15 16:00:00,15.08851866,0.0002148,53.2174,239.1219,41.2838,166.1379,-0.002014,-0.0003221,0.0,0 STARLINK-4071,1 52671U 22053R   22227.66667824 -.00032210  00000-0 -20140-2 0  9992,2 52671  53.2174 239.1219 0002148  41.2838 166.1379 15.08851866 14054,6917.844,95.437,541.195,538.2230000000002,0.0
52671.0,STARLINK-4071,PAYLOAD,2022-08-15 22:00:00,15.08816996,0.0002044,53.2176,237.9985,44.7754,81.351,0.0025793,0.00040975,0.0,0 STARLINK-4071,1 52671U 22053R   22227.91667824  .00040975  00000-0  25793-2 0  9994,2 52671  53.2176 237.9985 0002044  44.7754  81.3510 15.08816996  1306,6917.951,95.439,541.23,538.4019999999998,0.0
52671.0,STARLINK-4071,PAYLOAD,2022-08-16 06:00:02,15.08851656,0.0002229,53.2178,236.5034,43.806,93.9685,-0.0015201,-0.00024408,0.0,0 STARLINK-4071,1 52671U 22053R   22228.25002315 -.00024408  00000-0 -15201-2 0  9998,2 52671  53.2178 236.5034 0002229  43.8060  93.9685 15.08851656 14143,6917.845,95.437,541.252,538.168,0.0
52671.0,STARLINK-4071,PAYLOAD,2022-08-16 14:00:01,15.0884812,0.0002307,53.2178,235.0073,41.2151,108.0904,-0.00019372,-3.371e-05,0.0,0 STARLINK-4071,1 52671U 22053R   22228.58334491 -.00003371  00000-0 -19372-3 0  9997,2 52671  53.2178 235.0073 0002307  41.2151 108.0904 15.08848120  1308,6917.856,95.437,541.317,538.125,0.0
52671.0,STARLINK-4071,PAYLOAD,2022-08-16 22:00:00,15.08828851,0.0002157,53.2182,233.5093,46.0274,114.8875,0.0024498,0.00038905,0.0,0 STARLINK-4071,1 52671U 22053R   22228.91667824  .00038905  00000-0  24498-2 0  9996,2 52671  53.2182 233.5093 0002157  46.0274 114.8875 15.08828851  1301,6917.9140000000025,95.438,541.2719999999998,538.2869999999998,0.0
52671.0,STARLINK-4071,PAYLOAD,2022-08-17 14:00:01,15.08869799,0.0002345,53.2184,230.5182,41.8781,142.2414,-0.0035579,-0.00056517,0.0,0 STARLINK-4071,1 52671U 22053R   22229.58334491 -.00056517  00000-0 -35579-2 0  9994,2 52671  53.2184 230.5182 0002345  41.8781 142.2414 15.08869799 14342,6917.7890000000025,95.436,541.2769999999998,538.0319999999998,0.0
52671.0,STARLINK-4071,PAYLOAD,2022-08-17 16:00:00,15.08865042,0.0002266,53.2186,230.1436,42.5238,234.4966,-0.0040948999999999,-0.00064919,0.0,0 STARLINK-4071,1 52671U 22053R   22229.66667824 -.00064919  00000-0 -40949-2 0  9994,2 52671  53.2186 230.1436 0002266  42.5238 234.4966 15.08865042  1304,6917.804,95.436,541.236,538.101,0.0
52671.0,STARLINK-4071,PAYLOAD,2022-08-18 08:00:01,15.08829215,0.0002394,53.2189,227.1519,43.143,257.0666,0.00084886,0.00013244,0.0,0 STARLINK-4071,1 52671U 22053R   22230.33334491  .00013244  00000-0  84886-3 0  9993,2 52671  53.2189 227.1519 0002394  43.1430 257.0666 15.08829215 14458,6917.913000000001,95.438,541.435,538.122,0.0
52671.0,STARLINK-4071,PAYLOAD,2022-08-18 14:00:01,15.08853603,0.0002342,53.2187,226.0293,42.7691,176.1261,-0.0012007,-0.00019354,0.0,0 STARLINK-4071,1 52671U 22053R   22230.58334491 -.00019354  00000-0 -12007-2 0  9995,2 52671  53.2187 226.0293 0002342  42.7691 176.1261 15.08853603  1300,6917.839,95.437,541.3240000000002,538.0840000000002,0.0
52671.0,STARLINK-4071,PAYLOAD,2022-08-18 22:00:00,15.08830231,0.0002185,53.2189,224.5316,47.6856,182.8163,0.0024005,0.00038113,0.0,0 STARLINK-4071,1 52671U 22053R   22230.91667824  .00038113  00000-0  24005-2 0  9994,2 52671  53.2189 224.5316 0002185  47.6856 182.8163 15.08830231  1300,6917.91,95.438,541.2869999999998,538.264,0.0
52671.0,STARLINK-4071,PAYLOAD,2022-08-19 14:00:01,15.08844538,0.0002261,53.2185,221.5404,42.5637,211.1417,-0.0017628,-0.00028238,0.0,0 STARLINK-4071,1 52671U 22053R   22231.58334491 -.00028238  00000-0 -17628-2 0  9991,2 52671  53.2185 221.5404 0002261  42.5637 211.1417 15.08844538  1300,6917.8669999999975,95.437,541.2959999999998,538.1669999999998,0.0
52671.0,STARLINK-4071,PAYLOAD,2022-08-19 16:00:00,15.08842567,0.0002214,53.2186,221.1659,44.0373,302.5661,-0.0017793,-0.00028497,0.0,0 STARLINK-4071,1 52671U 22053R   22231.66667824 -.00028497  00000-0 -17793-2 0  9999,2 52671  53.2186 221.1659 0002214  44.0373 302.5661 15.08842567 14659,6917.873000000001,95.437,541.269,538.206,0.0
52671.0,STARLINK-4071,PAYLOAD,2022-08-19 22:00:00,15.08817112,0.0002119,53.2186,220.0429,47.7915,217.5028,0.0022391,0.00035505,0.0,0 STARLINK-4071,1 52671U 22053R   22231.91667824  .00035505  00000-0  22391-2 0  9993,2 52671  53.2186 220.0429 0002119  47.7915 217.5028 15.08817112  1306,6917.95,95.439,541.281,538.349,0.0
52671.0,STARLINK-4071,PAYLOAD,2022-08-20 08:00:01,15.08821909,0.0002343,53.2185,218.1747,44.487,325.2896,0.00124,0.00019492,0.0,0 STARLINK-4071,1 52671U 22053R   22232.33334491  .00019492  00000-0  12400-2 0  9998,2 52671  53.2185 218.1747 0002343  44.4870 325.2896 15.08821909 14762,6917.936,95.439,541.422,538.18,0.0
52671.0,STARLINK-4071,PAYLOAD,2022-08-20 14:00:01,15.08855279,0.000227,53.218,217.0517,44.6971,243.7628,-0.0020179,-0.00032274,0.0,0 STARLINK-4071,1 52671U 22053R   22232.58334491 -.00032274  00000-0 -20179-2 0  9992,2 52671  53.2180 217.0517 0002270  44.6971 243.7628 15.08855279  1303,6917.834,95.437,541.269,538.128,0.0
52671.0,STARLINK-4071,PAYLOAD,2022-08-20 22:00:00,15.0882878,0.0002158,53.2181,215.5543,50.3017,249.758,0.002071,0.00032816,0.0,0 STARLINK-4071,1 52671U 22053R   22232.91667824  .00032816  00000-0  20710-2 0  9999,2 52671  53.2181 215.5543 0002158  50.3017 249.7580 15.08828780  1306,6917.915,95.438,541.273,538.2869999999998,0.0
52671.0,STARLINK-4071,PAYLOAD,2022-08-21 14:00:01,15.08873992,0.000226,53.2174,212.5629,45.6598,277.5869,-0.0053086,-0.00083874,0.0,0 STARLINK-4071,1 52671U 22053R   22233.58334491 -.00083874  00000-0 -53086-2 0  9998,2 52671  53.2174 212.5629 0002260  45.6598 277.5869 15.08873992  1309,6917.776,95.435,541.205,538.078,0.0
52671.0,STARLINK-4071,PAYLOAD,2022-08-21 22:00:00,15.08810391,0.0002134999999999,53.2175,211.0656,50.2596,284.5889,0.0018727999999999,0.0002962,0.0,0 STARLINK-4071,1 52671U 22053R   22233.91667824  .00029620  00000-0  18728-2 0  9995,2 52671  53.2175 211.0656 0002135  50.2596 284.5889 15.08810391  1309,6917.971,95.439,541.313,538.359,0.0
52671.0,STARLINK-4071,PAYLOAD,2022-08-22 06:00:00,15.08820132,0.0002346999999999,53.2174,209.5712,46.4842,299.9381,3.2554e-05,2.3e-06,0.0,0 STARLINK-4071,1 52671U 22053R   22234.25001157  .00000230  00000-0  32554-4 0  9995,2 52671  53.2174 209.5712 0002347  46.4842 299.9381 15.08820132 15046,6917.941,95.439,541.43,538.182,0.0
52671.0,STARLINK-4071,PAYLOAD,2022-08-22 12:00:00,15.08834233,0.0002322,53.217,208.4486,45.1498,219.9459,-0.00089331,-0.00014476,0.0,0 STARLINK-4071,1 52671U 22053R   22234.50001157 -.00014476  00000-0 -89331-3 0  9996,2 52671  53.2170 208.4486 0002322  45.1498 219.9459 15.08834233  1303,6917.898,95.438,541.369,538.1569999999998,0.0
52671.0,STARLINK-4071,PAYLOAD,2022-08-22 22:00:00,15.08822091,0.0002242,53.2173,206.5768,51.5614,318.0102,0.0015994,0.00025246,0.0,0 STARLINK-4071,1 52671U 22053R   22234.91667824  .00025246  00000-0  15994-2 0  9998,2 52671  53.2173 206.5768 0002242  51.5614 318.0102 15.08822091  1305,6917.935,95.439,541.351,538.249,0.0
52671.0,STARLINK-4071,PAYLOAD,2022-08-23 14:00:01,15.08850037,0.0002398,53.2173,203.5849,47.9991,344.7356,-0.0021116999999999,-0.0003375,0.0,0 STARLINK-4071,1 52671U 22053R   22235.58334491 -.00033750  00000-0 -21117-2 0  9998,2 52671  53.2173 203.5849 0002398  47.9991 344.7356 15.08850037 15258,6917.85,95.437,541.374,538.056,0.0
52671.0,STARLINK-4071,PAYLOAD,2022-08-23 22:00:01,15.08835089,0.0002367,53.2176,202.0878,52.6044,351.785,0.0011959,0.00018794,0.0,0 STARLINK-4071,1 52671U 22053R   22235.91668981  .00018794  00000-0  11959-2 0  9991,2 52671  53.2176 202.0878 0002367  52.6044 351.7850 15.08835089  1303,6917.895,95.438,541.398,538.123,0.0
52671.0,STARLINK-4071,PAYLOAD,2022-08-24 08:00:01,15.0881801,0.0002573999999999,53.2178,200.2193,47.7249,101.1038,0.0030099,0.00047913,0.0,0 STARLINK-4071,1 52671U 22053R   22236.33334491  .00047913  00000-0  30099-2 0  9995,2 52671  53.2178 200.2193 0002574  47.7249 101.1038 15.08818010 15368,6917.948,95.439,541.5930000000002,538.0319999999998,0.0
52671.0,STARLINK-4071,PAYLOAD,2022-08-24 14:00:01,15.08858636,0.0002504,53.218,199.0958,50.0327,17.4825,-0.001871,-0.00029959,0.0,0 STARLINK-4071,1 52671U 22053R   22236.58334491 -.00029959  00000-0 -18710-2 0  9990,2 52671  53.2180 199.0958 0002504  50.0327  17.4825 15.08858636  1302,6917.823,95.436,541.4209999999998,537.956,0.0
52671.0,STARLINK-4071,PAYLOAD,2022-08-24 22:00:00,15.08849208,0.0002478,53.2177,197.5978,53.7606,25.3574,0.0008131999999999,0.00012681,0.0,0 STARLINK-4071,1 52671U 22053R   22236.91667824  .00012681  00000-0  81320-3 0  9996,2 52671  53.2177 197.5978 0002478  53.7606  25.3574 15.08849208  1307,6917.852,95.437,541.431,538.003,0.0
52671.0,STARLINK-4071,PAYLOAD,2022-08-25 14:00:01,15.08865406,0.0002512,53.2187,194.6067,51.1921,51.1435,-0.0038914,-0.00061736,0.0,0 STARLINK-4071,1 52671U 22053R   22237.58334491 -.00061736  00000-0 -38914-2 0  9998,2 52671  53.2187 194.6067 0002512  51.1921  51.1435 15.08865406  1307,6917.803000000001,95.436,541.405,537.93,0.0
